NORAD_CAT_ID,OBJECT_NAME,OBJECT_TYPE,EPOCH,MEAN_MOTION,ECCENTRICITY,INCLINATION,RA_OF_ASC_NODE,ARG_OF_PERICENTER,MEAN_ANOMALY,BSTAR,MEAN_MOTION_DOT,MEAN_MOTION_DDOT,TLE_LINE0,TLE_LINE1,TLE_LINE2,SEMIMAJOR_AXIS,PERIOD,APOGEE,PERIGEE,DECAYED
54086.0,STARLINK-5211,PAYLOAD,2023-01-04 22:00:00,15.60904257,0.0001592,53.2167,130.5419,41.6912,88.8237,-0.011723,-0.00909106,0.0,0 STARLINK-5211,1 54086U 22136AM  23004.91667824 -.00909106  00000-0 -11723-1 0  9991,2 54086  53.2167 130.5419 0001592  41.6912  88.8237 15.60904257  1301,6763.181,92.254,386.12300000000016,383.969,0.0
54086.0,STARLINK-5211,PAYLOAD,2023-01-05 00:00:00,15.60742846,0.0001459,53.2172,130.1358,46.1175,192.9101,-0.011835,-0.00911766,0.0,0 STARLINK-5211,1 54086U 22136AM  23005.00001157 -.00911766  00000-0 -11835-1 0  9992,2 54086  53.2172 130.1358 0001459  46.1175 192.9101 15.60742846 12514,6763.647,92.264,386.499,384.525,0.0
54086.0,STARLINK-5211,PAYLOAD,2023-01-05 10:00:00,15.59960395,0.0001247,53.2152,128.1195,87.3416,333.5376,-0.012879,-0.00957821,0.0,0 STARLINK-5211,1 54086U 22136AM  23005.41667824 -.00957821  00000-0 -12879-1 0  9997,2 54086  53.2152 128.1195 0001247  87.3416 333.5376 15.59960395 12581,6765.909000000002,92.31,388.617,386.93,0.0
54086.0,STARLINK-5211,PAYLOAD,2023-01-05 14:00:01,15.59590042,0.0001262,53.2149,127.3122,85.1752,192.1107,-0.012152,-0.00896858,0.0,0 STARLINK-5211,1 54086U 22136AM  23005.58334491 -.00896858  00000-0 -12152-1 0  9992,2 54086  53.2149 127.3122 0001262  85.1752 192.1107 15.59590042  1301,6766.98,92.332,389.699,387.991,0.0
54086.0,STARLINK-5211,PAYLOAD,2023-01-05 20:00:01,15.59124442,0.0001223,53.2149,126.1008,78.2654,163.2247,-0.012695,-0.00918237,0.0,0 STARLINK-5211,1 54086U 22136AM  23005.83334491 -.00918237  00000-0 -12695-1 0  9998,2 54086  53.2149 126.1008 0001223  78.2654 163.2247 15.59124442  1303,6768.3269999999975,92.36,391.02,389.364,0.0
54086.0,STARLINK-5211,PAYLOAD,2023-01-06 08:00:01,15.58160308,0.0001372,53.2151,123.678,85.6272,82.971,-0.013401,-0.00932898,0.0,0 STARLINK-5211,1 54086U 22136AM  23006.33334491 -.00932898  00000-0 -13401-1 0  9999,2 54086  53.2151 123.6780 0001372  85.6272  82.9710 15.58160308 12728,6771.1190000000015,92.417,393.913,392.055,0.0
54086.0,STARLINK-5211,PAYLOAD,2023-01-06 22:00:00,15.57027843,0.0001353,53.2145,120.8592,79.0346,122.3084,-0.014474,-0.00962283,0.0,0 STARLINK-5211,1 54086U 22136AM  23006.91667824 -.00962283  00000-0 -14474-1 0  9994,2 54086  53.2145 120.8592 0001353  79.0346 122.3084 15.57027843  1309,6774.401,92.484,397.1830000000001,395.35,0.0
54086.0,STARLINK-5211,PAYLOAD,2023-01-07 06:00:00,15.56345043,0.0001277,53.2149,119.2484,101.3468,169.0639,-0.013725,-0.00895847,0.0,0 STARLINK-5211,1 54086U 22136AM  23007.25001157 -.00895847  00000-0 -13725-1 0  9992,2 54086  53.2149 119.2484 0001277 101.3468 169.0639 15.56345043  1302,6776.383000000002,92.524,399.11300000000006,397.382,0.0
54086.0,STARLINK-5211,PAYLOAD,2023-01-07 14:00:01,15.55687148,0.0001232,53.2149,117.6422,87.8901,250.807,-0.014125,-0.00899251,0.0,0 STARLINK-5211,1 54086U 22136AM  23007.58334491 -.00899251  00000-0 -14125-1 0  9996,2 54086  53.2149 117.6422 0001232  87.8901 250.8070 15.55687148 12929,6778.2930000000015,92.564,400.99300000000005,399.323,0.0
54086.0,STARLINK-5211,PAYLOAD,2023-01-08 00:00:00,15.54889794,0.0001319,53.2153,115.6336,85.1556,67.7882,-0.01504,-0.00926813,0.0,0 STARLINK-5211,1 54086U 22136AM  23008.00001157 -.00926813  00000-0 -15040-1 0  9996,2 54086  53.2153 115.6336 0001319  85.1556  67.7882 15.54889794  1305,6780.61,92.611,403.369,401.581,0.0
54086.0,STARLINK-5211,PAYLOAD,2023-01-08 14:00:01,15.53729382,0.0001431999999999,53.2155,112.8281,80.0374,98.8061,-0.015019,-0.00890369,0.0,0 STARLINK-5211,1 54086U 22136AM  23008.58334491 -.00890369  00000-0 -15019-1 0  9991,2 54086  53.2155 112.8281 0001432  80.0374  98.8061 15.53729382 13079,6783.986,92.68,406.822,404.879,0.0
54086.0,STARLINK-5211,PAYLOAD,2023-01-08 22:00:00,15.53116897,0.0001344,53.2153,111.226,85.3953,158.5879,-0.016564,-0.00967349,0.0,0 STARLINK-5211,1 54086U 22136AM  23008.91667824 -.00967349  00000-0 -16564-1 0  9996,2 54086  53.2153 111.2260 0001344  85.3953 158.5879 15.53116897  1305,6785.769,92.717,408.546,406.722,0.0
54086.0,STARLINK-5211,PAYLOAD,2023-01-09 08:00:01,15.52297248,0.0001257,53.2154,109.2256,93.0411,321.3434,-0.016633,-0.00944806,0.0,0 STARLINK-5211,1 54086U 22136AM  23009.33335648 -.00944806  00000-0 -16633-1 0  9999,2 54086  53.2154 109.2256 0001257  93.0411 321.3434 15.52297248 13192,6788.158,92.766,410.876,409.169,0.0
54086.0,STARLINK-5211,PAYLOAD,2023-01-09 14:00:01,15.51779346,0.0001198,53.2151,108.0285,84.883,287.0638,-0.0161669999999999,-0.00892494,0.0,0 STARLINK-5211,1 54086U 22136AM  23009.58334491 -.00892494  00000-0 -16167-1 0  9998,2 54086  53.2151 108.0285 0001198  84.8830 287.0638 15.51779346  1302,6789.6680000000015,92.797,412.346,410.719,0.0
54086.0,STARLINK-5211,PAYLOAD,2023-01-10 00:00:00,15.50966722,0.0001264,53.2148,106.0312,90.1772,90.1556,-0.016753,-0.00897668,0.0,0 STARLINK-5211,1 54086U 22136AM  23010.00001157 -.00897668  00000-0 -16753-1 0  9996,2 54086  53.2148 106.0312 0001264  90.1772  90.1556 15.50966722  1303,6792.039000000002,92.845,414.763,413.046,0.0
54086.0,STARLINK-5211,PAYLOAD,2023-01-10 10:00:00,15.50178956,0.0001181,53.2148,104.0385,93.0377,254.4465,-0.018095,-0.00951831,0.0,0 STARLINK-5211,1 54086U 22136AM  23010.41667824 -.00951831  00000-0 -18095-1 0  9994,2 54086  53.2148 104.0385 0001181  93.0377 254.4465 15.50178956 13369,6794.34,92.893,417.008,415.403,0.0
54086.0,STARLINK-5211,PAYLOAD,2023-01-10 14:00:01,15.49816868,0.0001372,53.2146,103.2427,84.3998,113.6161,-0.016975,-0.00875126,0.0,0 STARLINK-5211,1 54086U 22136AM  23010.58334491 -.00875126  00000-0 -16975-1 0  9990,2 54086  53.2146 103.2427 0001372  84.3998 113.6161 15.49816868  1308,6795.398,92.914,418.196,416.331,0.0
54086.0,STARLINK-5211,PAYLOAD,2023-01-10 22:00:00,15.49203415,0.0001185,53.2145,101.6494,90.2241,168.2386,-0.018806,-0.00955211,0.0,0 STARLINK-5211,1 54086U 22136AM  23010.91667824 -.00955211  00000-0 -18806-1 0  9995,2 54086  53.2145 101.6494 0001185  90.2241 168.2386 15.49203415  1305,6797.191999999999,92.951,419.86300000000006,418.252,0.0
54086.0,STARLINK-5211,PAYLOAD,2023-01-11 08:00:01,15.48394275,0.0001153,53.2148,99.6609,87.3248,335.6042,-0.019356,-0.00955422,0.0,0 STARLINK-5211,1 54086U 22136AM  23011.33334491 -.00955422  00000-0 -19356-1 0  9998,2 54086  53.2148  99.6609 0001153  87.3248 335.6042 15.48394275 13509,6799.56,93.0,422.209,420.641,0.0
54086.0,STARLINK-5211,PAYLOAD,2023-01-11 14:00:01,15.47859078,0.0001161,53.2149,98.4706,77.9441,299.0948,-0.018018,-0.00867472,0.0,0 STARLINK-5211,1 54086U 22136AM  23011.58334491 -.00867472  00000-0 -18018-1 0  9996,2 54086  53.2149  98.4706 0001161  77.9441 299.0948 15.47859078  1303,6801.127,93.032,423.782,422.203,0.0
54086.0,STARLINK-5211,PAYLOAD,2023-01-11 22:00:00,15.47245806,0.0001093,53.2158,96.8793,75.7327,359.4083,-0.020003,-0.00948943,0.0,0 STARLINK-5211,1 54086U 22136AM  23011.91667824 -.00948943  00000-0 -20003-1 0  9992,2 54086  53.2158  96.8793 0001093  75.7327 359.4083 15.47245806 13597,6802.924,93.069,425.533,424.046,0.0
54086.0,STARLINK-5211,PAYLOAD,2023-01-12 22:00:00,15.452859900000002,0.0001183,53.2151,92.1282,76.0413,168.7394,-0.021066,-0.00934958,0.0,0 STARLINK-5211,1 54086U 22136AM  23012.91667824 -.00934958  00000-0 -21066-1 0  9994,2 54086  53.2151  92.1282 0001183  76.0413 168.7394 15.45285990 13741,6808.675,93.187,431.345,429.734,0.0
54086.0,STARLINK-5211,PAYLOAD,2023-01-13 14:00:01,15.43947688,0.0001153,53.2148,88.9684,74.0322,279.9343,-0.020303,-0.0086629,0.0,0 STARLINK-5211,1 54086U 22136AM  23013.58334491 -.00866290  00000-0 -20303-1 0  9995,2 54086  53.2148  88.9684 0001153  74.0322 279.9343 15.43947688  1305,6812.609,93.267,435.259,433.6880000000001,0.0
54086.0,STARLINK-5211,PAYLOAD,2023-01-13 22:00:00,15.43326502,0.0001097999999999,53.2144,87.3888,82.3611,325.0164,-0.022239,-0.00923982,0.0,0 STARLINK-5211,1 54086U 22136AM  23013.91667824 -.00923982  00000-0 -22239-1 0  9993,2 54086  53.2144  87.3888 0001098  82.3611 325.0164 15.43326502  1301,6814.437,93.305,437.05,435.554,0.0
54086.0,STARLINK-5211,PAYLOAD,2023-01-14 08:00:01,15.425274800000002,0.0001294,53.2144,85.4184,89.9159,113.1283,-0.02354,-0.00949644,0.0,0 STARLINK-5211,1 54086U 22136AM  23014.33334491 -.00949644  00000-0 -23540-1 0  9990,2 54086  53.2144  85.4184 0001294  89.9159 113.1283 15.42527480 13967,6816.79,93.353,439.537,437.773,0.0
54086.0,STARLINK-5211,PAYLOAD,2023-01-15 00:00:00,15.41176713,0.0001131,53.2141,82.2699,94.3217,211.2688,-0.022236,-0.00864174,0.0,0 STARLINK-5211,1 54086U 22136AM  23015.00001157 -.00864174  00000-0 -22236-1 0  9990,2 54086  53.2141  82.2699 0001131  94.3217 211.2688 15.41176713 14075,6820.772,93.435,443.409,441.866,0.0
54086.0,STARLINK-5211,PAYLOAD,2023-01-15 14:00:01,15.4004321,0.0001139999999999,53.2146,79.5224,82.54,220.1889,-0.023083,-0.00863863,0.0,0 STARLINK-5211,1 54086U 22136AM  23015.58334491 -.00863863  00000-0 -23083-1 0  9998,2 54086  53.2146  79.5224 0001140  82.5400 220.1889 15.40043210 14162,6824.119000000001,93.504,446.762,445.206,0.0
54086.0,STARLINK-5211,PAYLOAD,2023-01-15 22:00:01,15.39403874,0.0001121,53.2147,77.9517,88.211,263.3089,-0.024626,-0.00899248,0.0,0 STARLINK-5211,1 54086U 22136AM  23015.91668981 -.00899248  00000-0 -24626-1 0  9999,2 54086  53.2147  77.9517 0001121  88.2110 263.3089 15.39403874 14211,6826.008000000001,93.543,448.638,447.108,0.0
54086.0,STARLINK-5211,PAYLOAD,2023-01-16 14:00:01,15.38090814,0.0001246,53.2151,74.8204,72.0825,14.4668,-0.024599,-0.00863256,0.0,0 STARLINK-5211,1 54086U 22136AM  23016.58334491 -.00863256  00000-0 -24599-1 0  9998,2 54086  53.2151  74.8204 0001246  72.0825  14.4668 15.38090814 14311,6829.892,93.623,452.608,450.906,0.0
